[
    {
        "Altitude(m)": 570857.8177836372,
        "Argument of Periapsis(deg)": -0.007534386927657468,
        "Eccentricity": 0.0,
        "Inclination(deg)": 97.0,
        "Latitude(deg)": -19.237986879211604,
        "Longitude(deg)": -68.31871634410248,
        "Mean Anomaly(deg)": -19.150452243604175,
        "RAAN(deg)": 30.00198235120617,
        "Satellite Name": "Starlink Shell 3 1695",
        "Satellite Number": 1695,
        "Semi-Major Axis(m)": 6938478.169268562,
        "Time(s)": 190
    },
    {
        "Altitude(m)": 570660.4008229007,
        "Argument of Periapsis(deg)": -0.007930933608060494,
        "Eccentricity": 0.0,
        "Inclination(deg)": 97.0,
        "Latitude(deg)": -18.61541159637925,
        "Longitude(deg)": -68.44543323915995,
        "Mean Anomaly(deg)": -18.524976045899116,
        "RAAN(deg)": 30.002086685480176,
        "Satellite Name": "Starlink Shell 3 1695",
        "Satellite Number": 1695,
        "Semi-Major Axis(m)": 6938478.169268562,
        "Time(s)": 200
    },
    {
        "Altitude(m)": 570466.0985250215,
        "Argument of Periapsis(deg)": -0.008327480288463517,
        "Eccentricity": 0.0,
        "Inclination(deg)": 97.0,
        "Latitude(deg)": -17.992732362405583,
        "Longitude(deg)": -68.57153857749503,
        "Mean Anomaly(deg)": -17.899499848194058,
        "RAAN(deg)": 30.002191019754186,
        "Satellite Name": "Starlink Shell 3 1695",
        "Satellite Number": 1695,
        "Semi-Major Axis(m)": 6938478.169268562,
        "Time(s)": 210
    },
    {
        "Altitude(m)": 570274.9768133946,
        "Argument of Periapsis(deg)": -0.008724026968866542,
        "Eccentricity": 0.0,
        "Inclination(deg)": 97.0,
        "Latitude(deg)": -17.369952224388214,
        "Longitude(deg)": -68.69705860021206,
        "Mean Anomaly(deg)": -17.274023650489006,
        "RAAN(deg)": 30.002295354028195,
        "Satellite Name": "Starlink Shell 3 1695",
        "Satellite Number": 1695,
        "Semi-Major Axis(m)": 6938478.169268562,
        "Time(s)": 220
    },
    {
        "Altitude(m)": 570087.0999997681,
        "Argument of Periapsis(deg)": -0.009120573649269567,
        "Eccentricity": 0.0,
        "Inclination(deg)": 97.0,
        "Latitude(deg)": -16.747074218112306,
        "Longitude(deg)": -68.82201892229233,
        "Mean Anomaly(deg)": -16.64854745278394,
        "RAAN(deg)": 30.0023996883022,
        "Satellite Name": "Starlink Shell 3 1695",
        "Satellite Number": 1695,
        "Semi-Major Axis(m)": 6938478.169268562,
        "Time(s)": 230
    },
    {
        "Altitude(m)": 569902.5307551884,
        "Argument of Periapsis(deg)": -0.009517120329672592,
        "Eccentricity": 0.0,
        "Inclination(deg)": 97.0,
        "Latitude(deg)": -16.124101369355653,
        "Longitude(deg)": -68.94644406123143,
        "Mean Anomaly(deg)": -16.02307125507894,
        "RAAN(deg)": 30.00250402257621,
        "Satellite Name": "Starlink Shell 3 1695",
        "Satellite Number": 1695,
        "Semi-Major Axis(m)": 6938478.169268562,
        "Time(s)": 240
    },
    {
        "Altitude(m)": 569721.3300818,
        "Argument of Periapsis(deg)": -0.009913667010075618,
        "Eccentricity": 0.0,
        "Inclination(deg)": 97.0,
        "Latitude(deg)": -15.50103669509465,
        "Longitude(deg)": -69.07035847717448,
        "Mean Anomaly(deg)": -15.397595057373877,
        "RAAN(deg)": 30.002608356850217,
        "Satellite Name": "Starlink Shell 3 1695",
        "Satellite Number": 1695,
        "Semi-Major Axis(m)": 6938478.169268562,
        "Time(s)": 250
    },
    {
        "Altitude(m)": 569543.5572854485,
        "Argument of Periapsis(deg)": -0.010310213690478642,
        "Eccentricity": 0.0,
        "Inclination(deg)": 97.0,
        "Latitude(deg)": -14.877883204616184,
        "Longitude(deg)": -69.19378609888895,
        "Mean Anomaly(deg)": -14.772118859668872,
        "RAAN(deg)": 30.002712691124227,
        "Satellite Name": "Starlink Shell 3 1695",
        "Satellite Number": 1695,
        "Semi-Major Axis(m)": 6938478.169268562,
        "Time(s)": 260
    },
    {
        "Altitude(m)": 569369.2699490988,
        "Argument of Periapsis(deg)": -0.010706760370881667,
        "Eccentricity": 0.0,
        "Inclination(deg)": 97.0,
        "Latitude(deg)": -14.254643900540417,
        "Longitude(deg)": -69.31674984853241,
        "Mean Anomaly(deg)": -14.146642661963766,
        "RAAN(deg)": 30.002817025398244,
        "Satellite Name": "Starlink Shell 3 1695",
        "Satellite Number": 1695,
        "Semi-Major Axis(m)": 6938478.169268562,
        "Time(s)": 270
    },
    {
        "Altitude(m)": 569198.5239071338,
        "Argument of Periapsis(deg)": -0.011103307051284692,
        "Eccentricity": 0.0,
        "Inclination(deg)": 97.0,
        "Latitude(deg)": -13.631321779762443,
        "Longitude(deg)": -69.43927267816692,
        "Mean Anomaly(deg)": -13.521166464258755,
        "RAAN(deg)": 30.00292135967225,
        "Satellite Name": "Starlink Shell 3 1695",
        "Satellite Number": 1695,
        "Semi-Major Axis(m)": 6938478.169268562,
        "Time(s)": 280
    },
    {
        "Altitude(m)": 569031.3732204926,
        "Argument of Periapsis(deg)": -0.011499853731687715,
        "Eccentricity": 0.0,
        "Inclination(deg)": 97.0,
        "Latitude(deg)": -13.007919834313762,
        "Longitude(deg)": -69.56137709234605,
        "Mean Anomaly(deg)": -12.895690266553752,
        "RAAN(deg)": 30.00302569394626,
        "Satellite Name": "Starlink Shell 3 1695",
        "Satellite Number": 1695,
        "Semi-Major Axis(m)": 6938478.169268562,
        "Time(s)": 290
    },
    {
        "Altitude(m)": 568867.8701527237,
        "Argument of Periapsis(deg)": -0.011896400412090741,
        "Eccentricity": 0.0,
        "Inclination(deg)": 97.0,
        "Latitude(deg)": -12.384441052151672,
        "Longitude(deg)": -69.6830846697179,
        "Mean Anomaly(deg)": -12.270214068848693,
        "RAAN(deg)": 30.00313002822027,
        "Satellite Name": "Starlink Shell 3 1695",
        "Satellite Number": 1695,
        "Semi-Major Axis(m)": 6938478.169268562,
        "Time(s)": 300
    },
    {
        "Altitude(m)": 568708.0651468824,
        "Argument of Periapsis(deg)": -0.012292947092493765,
        "Eccentricity": 0.0,
        "Inclination(deg)": 97.0,
        "Latitude(deg)": -11.760888417880215,
        "Longitude(deg)": -69.804417096584,
        "Mean Anomaly(deg)": -11.64473787114363,
        "RAAN(deg)": 30.003234362494275,
        "Satellite Name": "Starlink Shell 3 1695",
        "Satellite Number": 1695,
        "Semi-Major Axis(m)": 6938478.169268562,
        "Time(s)": 310
    },
    {
        "Altitude(m)": 568552.0068033799,
        "Argument of Periapsis(deg)": -0.012689493772896788,
        "Eccentricity": 0.0,
        "Inclination(deg)": 97.0,
        "Latitude(deg)": -11.137264913405877,
        "Longitude(deg)": -69.92539568672808,
        "Mean Anomaly(deg)": -11.019261673438574,
        "RAAN(deg)": 30.003338696768285,
        "Satellite Name": "Starlink Shell 3 1695",
        "Satellite Number": 1695,
        "Semi-Major Axis(m)": 6938478.169268562,
        "Time(s)": 320
    },
    {
        "Altitude(m)": 568399.7418587274,
        "Argument of Periapsis(deg)": -0.013086040453299813,
        "Eccentricity": 0.0,
        "Inclination(deg)": 97.0,
        "Latitude(deg)": -10.513573518533121,
        "Longitude(deg)": -70.04604090044894,
        "Mean Anomaly(deg)": -10.39378547573352,
        "RAAN(deg)": 30.003443031042295,
        "Satellite Name": "Starlink Shell 3 1695",
        "Satellite Number": 1695,
        "Semi-Major Axis(m)": 6938478.169268562,
        "Time(s)": 330
    },
    {
        "Altitude(m)": 568251.3151652238,
        "Argument of Periapsis(deg)": -0.01348258713370284,
        "Eccentricity": 0.0,
        "Inclination(deg)": 97.0,
        "Latitude(deg)": -9.889817211504246,
        "Longitude(deg)": -70.166373375726,
        "Mean Anomaly(deg)": -9.768309278028457,
        "RAAN(deg)": 30.0035473653163,
        "Satellite Name": "Starlink Shell 3 1695",
        "Satellite Number": 1695,
        "Semi-Major Axis(m)": 6938478.169268562,
        "Time(s)": 340
    },
    {
        "Altitude(m)": 568106.7696715816,
        "Argument of Periapsis(deg)": -0.013879133814105863,
        "Eccentricity": 0.0,
        "Inclination(deg)": 97.0,
        "Latitude(deg)": -9.265998969486091,
        "Longitude(deg)": -70.2864134458241,
        "Mean Anomaly(deg)": -9.142833080323504,
        "RAAN(deg)": 30.00365169959031,
        "Satellite Name": "Starlink Shell 3 1695",
        "Satellite Number": 1695,
        "Semi-Major Axis(m)": 6938478.169268562,
        "Time(s)": 350
    },
    {
        "Altitude(m)": 567966.1464045008,
        "Argument of Periapsis(deg)": -0.01427568049450889,
        "Eccentricity": 0.0,
        "Inclination(deg)": 97.0,
        "Latitude(deg)": -8.642121769007346,
        "Longitude(deg)": -70.40618065626244,
        "Mean Anomaly(deg)": -8.517356882618447,
        "RAAN(deg)": 30.00375603386432,
        "Satellite Name": "Starlink Shell 3 1695",
        "Satellite Number": 1695,
        "Semi-Major Axis(m)": 6938478.169268562,
        "Time(s)": 360
    },
    {
        "Altitude(m)": 567829.4844512356,
        "Argument of Periapsis(deg)": -0.014672227174911913,
        "Eccentricity": 0.0,
        "Inclination(deg)": 97.0,
        "Latitude(deg)": -8.018188586351991,
        "Longitude(deg)": -70.52569479406954,
        "Mean Anomaly(deg)": -7.891880684913386,
        "RAAN(deg)": 30.003860368138326,
        "Satellite Name": "Starlink Shell 3 1695",
        "Satellite Number": 1695,
        "Semi-Major Axis(m)": 6938478.169268562,
        "Time(s)": 370
    }
]